ONEWEB-0435             
1 51632U 22012L   25057.48838858  .00000588  00000+0  16479-2 0  9994
2 51632  87.8889 131.0997 0002338 105.6388 254.4998 13.10373746147013
ONEWEB-0436             
1 51633U 22012M   25057.54805438  .00000106  00000+0  24028-3 0  9996
2 51633  87.9024 100.6055 0002199  95.0578 265.0804 13.17647633151049
ONEWEB-0438             
1 51634U 22012N   25057.47177269 -.00000225  00000+0 -67957-3 0  9995
2 51634  87.8890 131.1038 0001725 107.7327 252.3988 13.10375271147043
ONEWEB-0439             
1 51635U 22012P   25057.62781115 -.00000048  00000+0 -17286-3 0  9997
2 51635  87.8890 131.0595 0001922 104.4023 255.7318 13.10375746148320
ONEWEB-0442             
1 51636U 22012Q   25057.54045944  .00000067  00000+0  13842-3 0  9995
2 51636  87.9026 100.6505 0001232  96.5661 263.5611 13.17647977151039
ONEWEB-0443             
1 51637U 22012R   25057.48392411  .00000074  00000+0  15689-3 0  9992
2 51637  87.9030 100.6745 0001834 107.9447 252.1884 13.17646602151072
ONEWEB-0444             
1 51638U 22012S   25057.46512845 -.00000414  00000+0 -12235-2 0  9999
2 51638  87.8887 131.1008 0002026 106.4543 253.6807 13.10374649147032
ONEWEB-0445             
1 51639U 22012T   25057.48672702  .00000567  00000+0  15880-2 0  9997
2 51639  87.8880 131.0565 0001726  99.7375 260.3947 13.10374417147040
